0 COSMOS 2251 DEB
1 34918U 93036ADP 13280.11437340  .00001718  00000-0  69431-3 0  2629
2 34918 074.0842 201.6103 0056571 223.9057 135.7778 14.27750477234738
0 COSMOS 2251 DEB
1 34918U 93036ADP 13283.12730254  .00001805  00000-0  72931-3 0  2630
2 34918 074.0801 196.1671 0054674 219.8384 139.8772 14.27763185235167
0 COSMOS 2251 DEB
1 34918U 93036ADP 13287.05108260  .00001875  00000-0  75733-3 0  2643
2 34918 074.0809 189.0793 0054309 212.8649 146.9379 14.27779768235721
0 COSMOS 2251 DEB
1 34918U 93036ADP 13289.36328538  .00001894  00000-0  76489-3 0  2652
2 34918 074.0825 184.9092 0054241 206.9182 152.9247 14.27789212236059
0 COSMOS 2251 DEB
1 34918U 93036ADP 13292.02580496  .00001931  00000-0  77938-3 0  2665
2 34918 074.0809 180.0958 0054052 201.6923 158.2172 14.27800753236436
0 COSMOS 2251 DEB
1 34918U 93036ADP 13293.35704591  .00001991  00000-0  80260-3 0  2675
2 34918 074.0816 177.6878 0055007 197.6999 162.2415 14.27808018236623
